{
  "type": "FeatureCollection",
  "features": [
    {
      "type": "Feature",
      "properties": {
        "norad_id": 64694,
        "name": "GOSAT-GW (IBUKI GW)",
        "group": "resource",
        "lat": 81.8458353554141,
        "lon": -167.4558671610076,
        "alt_km": 660.393898631336,
        "timestamp": "2025-12-22T11:33:20.087432+00:00",
        "meta_object_name": "GOSAT-GW (IBUKI GW)",
        "meta_object_id": "2025-141A",
        "meta_epoch": "2025-12-22T04:35:44.887200",
        "meta_mean_motion": 14.67563181,
        "meta_eccentricity": 0.0001431,
        "meta_inclination": 98.0437,
        "meta_ra_of_asc_node": 291.5335,
        "meta_arg_of_pericenter": 84.4373,
        "meta_mean_anomaly": 275.6995,
        "meta_ephemeris_type": 0,
        "meta_classification_type": "U",
        "meta_norad_cat_id": 64694,
        "meta_element_set_no": 999,
        "meta_rev_at_epoch": 2588,
        "meta_bstar": 0.00017441,
        "meta_mean_motion_dot": 9.42e-06,
        "meta_mean_motion_ddot": 0,
        "tle_line1": "1 64694U 25141A   25356.19149175  .00000942  00000+0  17441-3 0  9994",
        "tle_line2": "2 64694  98.0437 291.5335 0001431  84.4373 275.6995 14.67563181 25886"
      },
      "geometry": {
        "type": "Point",
        "coordinates": [
          -167.4558671610076,
          81.8458353554141
        ]
      }
    },
    {
      "type": "Feature",
      "properties": {
        "norad_id": 64876,
        "name": "IONOSFERA-M 3",
        "group": "resource",
        "lat": -77.63932999510118,
        "lon": 1.6151349270520612,
        "alt_km": 828.5972975345549,
        "timestamp": "2025-12-22T11:33:20.087442+00:00",
        "meta_object_name": "IONOSFERA-M 3",
        "meta_object_id": "2025-155A",
        "meta_epoch": "2025-12-22T05:10:44.236992",
        "meta_mean_motion": 14.21443251,
        "meta_eccentricity": 0.0001955,
        "meta_inclination": 98.5796,
        "meta_ra_of_asc_node": 317.8142,
        "meta_arg_of_pericenter": 44.5572,
        "meta_mean_anomaly": 315.5762,
        "meta_ephemeris_type": 0,
        "meta_classification_type": "U",
        "meta_norad_cat_id": 64876,
        "meta_element_set_no": 999,
        "meta_rev_at_epoch": 2126,
        "meta_bstar": 5.2635e-05,
        "meta_mean_motion_dot": 7.2e-07,
        "meta_mean_motion_ddot": 0,
        "tle_line1": "1 64876U 25155A   25356.21578978  .00000072  00000+0  52635-4 0  9990",
        "tle_line2": "2 64876  98.5796 317.8142 0001955  44.5572 315.5762 14.21443251 21267"
      },
      "geometry": {
        "type": "Point",
        "coordinates": [
          1.6151349270520612,
          -77.63932999510118
        ]
      }
    },
    {
      "type": "Feature",
      "properties": {
        "norad_id": 64877,
        "name": "IONOSFERA-M 4",
        "group": "resource",
        "lat": 77.08092167769843,
        "lon": 179.15039438950973,
        "alt_km": 812.5178751293124,
        "timestamp": "2025-12-22T11:33:20.087452+00:00",
        "meta_object_name": "IONOSFERA-M 4",
        "meta_object_id": "2025-155B",
        "meta_epoch": "2025-12-22T04:19:51.555648",
        "meta_mean_motion": 14.21444361,
        "meta_eccentricity": 0.0001366,
        "meta_inclination": 98.5795,
        "meta_ra_of_asc_node": 317.6993,
        "meta_arg_of_pericenter": 54.3677,
        "meta_mean_anomaly": 305.7628,
        "meta_ephemeris_type": 0,
        "meta_classification_type": "U",
        "meta_norad_cat_id": 64877,
        "meta_element_set_no": 999,
        "meta_rev_at_epoch": 2125,
        "meta_bstar": 4.6499e-05,
        "meta_mean_motion_dot": 5.9e-07,
        "meta_mean_motion_ddot": 0,
        "tle_line1": "1 64877U 25155B   25356.18045782  .00000059  00000+0  46499-4 0  9995",
        "tle_line2": "2 64877  98.5795 317.6993 0001366  54.3677 305.7628 14.21444361 21254"
      },
      "geometry": {
        "type": "Point",
        "coordinates": [
          179.15039438950973,
          77.08092167769843
        ]
      }
    },
    {
      "type": "Feature",
      "properties": {
        "norad_id": 64899,
        "name": "MICROCARB",
        "group": "resource",
        "lat": -46.34290344810383,
        "lon": -116.80670295556622,
        "alt_km": 665.7353357968786,
        "timestamp": "2025-12-22T11:33:20.087462+00:00",
        "meta_object_name": "MICROCARB",
        "meta_object_id": "2025-156A",
        "meta_epoch": "2025-12-22T04:00:16.111296",
        "meta_mean_motion": 14.72071696,
        "meta_eccentricity": 0.0017561,
        "meta_inclination": 98.0014,
        "meta_ra_of_asc_node": 71.3608,
        "meta_arg_of_pericenter": 116.4521,
        "meta_mean_anomaly": 243.8491,
        "meta_ephemeris_type": 0,
        "meta_classification_type": "U",
        "meta_norad_cat_id": 64899,
        "meta_element_set_no": 999,
        "meta_rev_at_epoch": 2192,
        "meta_bstar": 0.00011168,
        "meta_mean_motion_dot": 6.54e-06,
        "meta_mean_motion_ddot": 0,
        "tle_line1": "1 64899U 25156A   25356.16685314  .00000654  00000+0  11168-3 0  9994",
        "tle_line2": "2 64899  98.0014  71.3608 0017561 116.4521 243.8491 14.72071696 21923"
      },
      "geometry": {
        "type": "Point",
        "coordinates": [
          -116.80670295556622,
          -46.34290344810383
        ]
      }
    },
    {
      "type": "Feature",
      "properties": {
        "norad_id": 64900,
        "name": "CO3D 3",
        "group": "resource",
        "lat": 26.20997922230049,
        "lon": -103.60514597488272,
        "alt_km": 504.1929663139481,
        "timestamp": "2025-12-22T11:33:20.087472+00:00",
        "meta_object_name": "CO3D 3",
        "meta_object_id": "2025-156B",
        "meta_epoch": "2025-12-22T04:33:50.218848",
        "meta_mean_motion": 15.20205708,
        "meta_eccentricity": 0.0001362,
        "meta_inclination": 97.4341,
        "meta_ra_of_asc_node": 72.4223,
        "meta_arg_of_pericenter": 75.4688,
        "meta_mean_anomaly": 284.6698,
        "meta_ephemeris_type": 0,
        "meta_classification_type": "U",
        "meta_norad_cat_id": 64900,
        "meta_element_set_no": 999,
        "meta_rev_at_epoch": 2264,
        "meta_bstar": 0.00027135,
        "meta_mean_motion_dot": 5.812e-05,
        "meta_mean_motion_ddot": 0,
        "tle_line1": "1 64900U 25156B   25356.19016457  .00005812  00000+0  27135-3 0  9998",
        "tle_line2": "2 64900  97.4341  72.4223 0001362  75.4688 284.6698 15.20205708 22646"
      },
      "geometry": {
        "type": "Point",
        "coordinates": [
          -103.60514597488272,
          26.20997922230049
        ]
      }
    },
    {
      "type": "Feature",
      "properties": {
        "norad_id": 64901,
        "name": "CO3D 4",
        "group": "resource",
        "lat": 27.065000486288515,
        "lon": -103.46535803953847,
        "alt_km": 503.31475297909947,
        "timestamp": "2025-12-22T11:33:20.087482+00:00",
        "meta_object_name": "CO3D 4",
        "meta_object_id": "2025-156C",
        "meta_epoch": "2025-12-22T04:34:03.525312",
        "meta_mean_motion": 15.20213666,
        "meta_eccentricity": 0.0001324,
        "meta_inclination": 97.4341,
        "meta_ra_of_asc_node": 72.4222,
        "meta_arg_of_pericenter": 164.9847,
        "meta_mean_anomaly": 195.1428,
        "meta_ephemeris_type": 0,
        "meta_classification_type": "U",
        "meta_norad_cat_id": 64901,
        "meta_element_set_no": 999,
        "meta_rev_at_epoch": 2264,
        "meta_bstar": 0.00030736,
        "meta_mean_motion_dot": 6.594e-05,
        "meta_mean_motion_ddot": 0,
        "tle_line1": "1 64901U 25156C   25356.19031858  .00006594  00000+0  30736-3 0  9990",
        "tle_line2": "2 64901  97.4341  72.4222 0001324 164.9847 195.1428 15.20213666 22644"
      },
      "geometry": {
        "type": "Point",
        "coordinates": [
          -103.46535803953847,
          27.065000486288515
        ]
      }
    },
    {
      "type": "Feature",
      "properties": {
        "norad_id": 64902,
        "name": "CO3D 2",
        "group": "resource",
        "lat": -24.932337403847843,
        "lon": 76.0886029325653,
        "alt_km": 510.87683801630556,
        "timestamp": "2025-12-22T11:33:20.087492+00:00",
        "meta_object_name": "CO3D 2",
        "meta_object_id": "2025-156D",
        "meta_epoch": "2025-12-21T16:42:32.405760",
        "meta_mean_motion": 15.20195819,
        "meta_eccentricity": 7.56e-05,
        "meta_inclination": 97.434,
        "meta_ra_of_asc_node": 71.8347,
        "meta_arg_of_pericenter": 63.7971,
        "meta_mean_anomaly": 296.3342,
        "meta_ephemeris_type": 0,
        "meta_classification_type": "U",
        "meta_norad_cat_id": 64902,
        "meta_element_set_no": 999,
        "meta_rev_at_epoch": 2256,
        "meta_bstar": 0.00013571,
        "meta_mean_motion_dot": 2.871e-05,
        "meta_mean_motion_ddot": 0,
        "tle_line1": "1 64902U 25156D   25355.69620840  .00002871  00000+0  13571-3 0  9992",
        "tle_line2": "2 64902  97.4340  71.8347 0000756  63.7971 296.3342 15.20195819 22566"
      },
      "geometry": {
        "type": "Point",
        "coordinates": [
          76.0886029325653,
          -24.932337403847843
        ]
      }
    }
  ]
}